start=new Date('2021-11-17T00:00:00.000Z').valueOf();
sats=[{"OBJECT_ID":"2021-009J","LAUNCH_DATE":"2021-02-04","RCS_SIZE":"LARGE","ECCENTRICITY":"0.00019000","DECAY_DATE":null,"MEAN_MOTION":"15.06406893","TLE_LINE1":"1 47556U 21009J   21320.55869146  .00000523  00000-0  54032-4 0  9999","EPHEMERIS_TYPE":"0","INCLINATION":"53.0554","APOAPSIS":"548.508","SEMIMAJOR_AXIS":"6925.327","CLASSIFICATION_TYPE":"U","FILE":"3216827","MEAN_ANOMALY":"285.9038","BSTAR":"0.00005403200000","REF_FRAME":"TEME","MEAN_MOTION_DOT":"0.00000523","TLE_LINE2":"2 47556  53.0554 268.1567 0001900  74.2160 285.9038 15.06406893 43257","SITE":"AFETR","RA_OF_ASC_NODE":"268.1567","GP_ID":"189881855","ELEMENT_SET_NO":"999","MEAN_MOTION_DDOT":"0.0000000000000","PERIAPSIS":"545.877","OBJECT_NAME":"STARLINK-1955","MEAN_ELEMENT_THEORY":"SGP4","EPOCH":"2021-11-16T13:24:30.942144","CENTER_NAME":"EARTH","TIME_SYSTEM":"UTC","ARG_OF_PERICENTER":"74.2160","COUNTRY_CODE":"US","OBJECT_TYPE":"PAYLOAD","REV_AT_EPOCH":"4325","PERIOD":"95.592","NORAD_CAT_ID":"47556"},{"CENTER_NAME":"EARTH","TIME_SYSTEM":"UTC","EPOCH":"2021-11-16T14:06:58.695840","MEAN_ELEMENT_THEORY":"SGP4","NORAD_CAT_ID":"47557","PERIOD":"95.593","REV_AT_EPOCH":"4386","COUNTRY_CODE":"US","OBJECT_TYPE":"PAYLOAD","ARG_OF_PERICENTER":"59.9121","TLE_LINE2":"2 47557  53.0554 268.0442 0001651  59.9121 300.2031 15.06392748 43863","MEAN_MOTION_DOT":"-0.00000227","REF_FRAME":"TEME","BSTAR":"0.00000369210000","MEAN_ANOMALY":"300.2031","FILE":"3217038","CLASSIFICATION_TYPE":"U","SEMIMAJOR_AXIS":"6925.371","INCLINATION":"53.0554","APOAPSIS":"548.379","OBJECT_NAME":"STARLINK-1956","MEAN_MOTION_DDOT":"0.0000000000000","PERIAPSIS":"546.092","GP_ID":"189888315","ELEMENT_SET_NO":"999","RA_OF_ASC_NODE":"268.0442","SITE":"AFETR","MEAN_MOTION":"15.06392748","DECAY_DATE":null,"EPHEMERIS_TYPE":"0","TLE_LINE1":"1 47557U 21009K   21320.58817935 -.00000227  00000-0  36921-5 0  9992","ECCENTRICITY":"0.00016510","RCS_SIZE":"LARGE","LAUNCH_DATE":"2021-02-04","OBJECT_ID":"2021-009K"},{"ECCENTRICITY":"0.00017890","RCS_SIZE":"LARGE","OBJECT_ID":"2021-009L","LAUNCH_DATE":"2021-02-04","MEAN_MOTION":"15.06413469","DECAY_DATE":null,"EPHEMERIS_TYPE":"0","TLE_LINE1":"1 47558U 21009L   21320.50247422  .00004839  00000-0  34340-3 0  9996","BSTAR":"0.00034340000000","REF_FRAME":"TEME","MEAN_ANOMALY":"290.5907","FILE":"3216827","TLE_LINE2":"2 47558  53.0534 238.4075 0001789  69.5274 290.5907 15.06413469 43668","MEAN_MOTION_DOT":"0.00004839","SEMIMAJOR_AXIS":"6925.307","INCLINATION":"53.0534","APOAPSIS":"548.411","CLASSIFICATION_TYPE":"U","OBJECT_NAME":"STARLINK-1957","PERIAPSIS":"545.933","MEAN_MOTION_DDOT":"0.0000000000000","RA_OF_ASC_NODE":"238.4075","SITE":"AFETR","GP_ID":"189881354","ELEMENT_SET_NO":"999","EPOCH":"2021-11-16T12:03:33.772608","CENTER_NAME":"EARTH","TIME_SYSTEM":"UTC","MEAN_ELEMENT_THEORY":"SGP4","PERIOD":"95.591","NORAD_CAT_ID":"47558","ARG_OF_PERICENTER":"69.5274","REV_AT_EPOCH":"4366","OBJECT_TYPE":"PAYLOAD","COUNTRY_CODE":"US"},{"TLE_LINE1":"1 47559U 21009M   21320.73191490  .00001467  00000-0  11735-3 0  9992","EPHEMERIS_TYPE":"0","DECAY_DATE":null,"MEAN_MOTION":"15.06400206","OBJECT_ID":"2021-009M","LAUNCH_DATE":"2021-02-04","RCS_SIZE":"LARGE","ECCENTRICITY":"0.00014860","ARG_OF_PERICENTER":"68.7414","COUNTRY_CODE":"US","OBJECT_TYPE":"PAYLOAD","REV_AT_EPOCH":"4445","PERIOD":"95.592","NORAD_CAT_ID":"47559","MEAN_ELEMENT_THEORY":"SGP4","EPOCH":"2021-11-16T17:33:57.447360","CENTER_NAME":"EARTH","TIME_SYSTEM":"UTC","SITE":"AFETR","RA_OF_ASC_NODE":"227.3929","ELEMENT_SET_NO":"999","GP_ID":"189887924","MEAN_MOTION_DDOT":"0.0000000000000","PERIAPSIS":"546.184","OBJECT_NAME":"STARLINK-1958","APOAPSIS":"548.242","INCLINATION":"53.0542","SEMIMAJOR_AXIS":"6925.348","CLASSIFICATION_TYPE":"U","MEAN_ANOMALY":"291.3733","FILE":"3217038","REF_FRAME":"TEME","BSTAR":"0.00011735000000","MEAN_MOTION_DOT":"0.00001467","TLE_LINE2":"2 47559  53.0542 227.3929 0001486  68.7414 291.3733 15.06400206 44453"},{"RCS_SIZE":"LARGE","ECCENTRICITY":"0.00018490","LAUNCH_DATE":"2021-02-04","OBJECT_ID":"2021-009N","MEAN_MOTION":"15.06395700","DECAY_DATE":null,"EPHEMERIS_TYPE":"0","TLE_LINE1":"1 47560U 21009N   21320.45916998  .00000214  00000-0  33302-4 0  9995","MEAN_MOTION_DOT":"0.00000214","TLE_LINE2":"2 47560  53.0546 228.6242 0001849  71.3450 288.7740 15.06395700 43802","MEAN_ANOMALY":"288.7740","FILE":"3216827","BSTAR":"0.00003330200000","REF_FRAME":"TEME","CLASSIFICATION_TYPE":"U","INCLINATION":"53.0546","APOAPSIS":"548.507","SEMIMAJOR_AXIS":"6925.362","MEAN_MOTION_DDOT":"0.0000000000000","PERIAPSIS":"545.946","OBJECT_NAME":"STARLINK-1959","ELEMENT_SET_NO":"999","GP_ID":"189882356","SITE":"AFETR","RA_OF_ASC_NODE":"228.6242","CENTER_NAME":"EARTH","TIME_SYSTEM":"UTC","EPOCH":"2021-11-16T11:01:12.286272","MEAN_ELEMENT_THEORY":"SGP4","NORAD_CAT_ID":"47560","PERIOD":"95.592","COUNTRY_CODE":"US","OBJECT_TYPE":"PAYLOAD","REV_AT_EPOCH":"4380","ARG_OF_PERICENTER":"71.3450"},{"OBJECT_ID":"2021-009P","LAUNCH_DATE":"2021-02-04","ECCENTRICITY":"0.00058610","RCS_SIZE":"LARGE","TLE_LINE1":"1 47561U 21009P   21320.77799829  .00002245  00000-0  16965-3 0  9994","EPHEMERIS_TYPE":"0","DECAY_DATE":null,"MEAN_MOTION":"15.06402127","RA_OF_ASC_NODE":"247.1884","SITE":"AFETR","GP_ID":"189887928","ELEMENT_SET_NO":"999","OBJECT_NAME":"STARLINK-1960","MEAN_MOTION_DDOT":"0.0000000000000","PERIAPSIS":"543.148","SEMIMAJOR_AXIS":"6925.342","INCLINATION":"53.0566","APOAPSIS":"551.266","CLASSIFICATION_TYPE":"U","REF_FRAME":"TEME","BSTAR":"0.00016965000000","MEAN_ANOMALY":"315.7708","FILE":"3217038","TLE_LINE2":"2 47561  53.0566 247.1884 0005861  44.3749 315.7708 15.06402127 44170","MEAN_MOTION_DOT":"0.00002245","ARG_OF_PERICENTER":"44.3749","REV_AT_EPOCH":"4417","COUNTRY_CODE":"US","OBJECT_TYPE":"PAYLOAD","PERIOD":"95.592","NORAD_CAT_ID":"47561","MEAN_ELEMENT_THEORY":"SGP4","EPOCH":"2021-11-16T18:40:19.052256","TIME_SYSTEM":"UTC","CENTER_NAME":"EARTH"},{"OBJECT_ID":"2021-009Q","LAUNCH_DATE":"2021-02-04","ECCENTRICITY":"0.00015910","RCS_SIZE":"LARGE","DECAY_DATE":null,"MEAN_MOTION":"15.06398056","TLE_LINE1":"1 47562U 21009Q   21320.52735062  .00002153  00000-0  16341-3 0  9993","EPHEMERIS_TYPE":"0","SEMIMAJOR_AXIS":"6925.355","INCLINATION":"53.0559","APOAPSIS":"548.321","CLASSIFICATION_TYPE":"U","REF_FRAME":"TEME","BSTAR":"0.00016341000000","FILE":"3216827","MEAN_ANOMALY":"291.2025","TLE_LINE2":"2 47562  53.0559 248.3114 0001591  68.9134 291.2025 15.06398056 43532","MEAN_MOTION_DOT":"0.00002153","RA_OF_ASC_NODE":"248.3114","SITE":"AFETR","GP_ID":"189880854","ELEMENT_SET_NO":"999","OBJECT_NAME":"STARLINK-1961","PERIAPSIS":"546.118","MEAN_MOTION_DDOT":"0.0000000000000","MEAN_ELEMENT_THEORY":"SGP4","EPOCH":"2021-11-16T12:39:23.093568","CENTER_NAME":"EARTH","TIME_SYSTEM":"UTC","ARG_OF_PERICENTER":"68.9134","REV_AT_EPOCH":"4353","COUNTRY_CODE":"US","OBJECT_TYPE":"PAYLOAD","PERIOD":"95.592","NORAD_CAT_ID":"47562"},{"EPHEMERIS_TYPE":"0","TLE_LINE1":"1 47563U 21009R   21320.21773533 -.00000337  00000-0 -37317-5 0  9997","MEAN_MOTION":"15.06400299","DECAY_DATE":null,"ECCENTRICITY":"0.00016270","RCS_SIZE":"LARGE","LAUNCH_DATE":"2021-02-04","OBJECT_ID":"2021-009R","NORAD_CAT_ID":"47563","PERIOD":"95.592","REV_AT_EPOCH":"4348","COUNTRY_CODE":"US","OBJECT_TYPE":"PAYLOAD","ARG_OF_PERICENTER":"68.5015","CENTER_NAME":"EARTH","TIME_SYSTEM":"UTC","EPOCH":"2021-11-16T05:13:32.332512","MEAN_ELEMENT_THEORY":"SGP4","OBJECT_NAME":"STARLINK-1962","PERIAPSIS":"546.086","MEAN_MOTION_DDOT":"0.0000000000000","GP_ID":"189881098","ELEMENT_SET_NO":"999","RA_OF_ASC_NODE":"249.7003","SITE":"AFETR","TLE_LINE2":"2 47563  53.0563 249.7003 0001627  68.5015 291.6148 15.06400299 43481","MEAN_MOTION_DOT":"-0.00000337","REF_FRAME":"TEME","BSTAR":"-0.00000373170000","FILE":"3216827","MEAN_ANOMALY":"291.6148","CLASSIFICATION_TYPE":"U","SEMIMAJOR_AXIS":"6925.348","INCLINATION":"53.0563","APOAPSIS":"548.339"},{"MEAN_MOTION_DDOT":"0.0000000000000","PERIAPSIS":"545.918","OBJECT_NAME":"STARLINK-1963","SITE":"AFETR","RA_OF_ASC_NODE":"238.5024","ELEMENT_SET_NO":"999","GP_ID":"189881856","FILE":"3216827","MEAN_ANOMALY":"293.5953","BSTAR":"0.00002593000000","REF_FRAME":"TEME","MEAN_MOTION_DOT":"0.00000105","TLE_LINE2":"2 47564  53.0548 238.5024 0001883  66.5233 293.5953 15.06397078 43663","APOAPSIS":"548.527","INCLINATION":"53.0548","SEMIMAJOR_AXIS":"6925.358","CLASSIFICATION_TYPE":"U","PERIOD":"95.592","NORAD_CAT_ID":"47564","ARG_OF_PERICENTER":"66.5233","COUNTRY_CODE":"US","OBJECT_TYPE":"PAYLOAD","REV_AT_EPOCH":"4366","EPOCH":"2021-11-16T11:37:02.034048","TIME_SYSTEM":"UTC","CENTER_NAME":"EARTH","MEAN_ELEMENT_THEORY":"SGP4","RCS_SIZE":"LARGE","ECCENTRICITY":"0.00018830","OBJECT_ID":"2021-009S","LAUNCH_DATE":"2021-02-04","EPHEMERIS_TYPE":"0","TLE_LINE1":"1 47564U 21009S   21320.48405132  .00000105  00000-0  25930-4 0  9992","MEAN_MOTION":"15.06397078","DECAY_DATE":null},{"ECCENTRICITY":"0.00016680","RCS_SIZE":"LARGE","LAUNCH_DATE":"2021-02-04","OBJECT_ID":"2021-009T","EPHEMERIS_TYPE":"0","TLE_LINE1":"1 47565U 21009T   21320.48035660  .00000094  00000-0  25191-4 0  9994","MEAN_MOTION":"15.06401658","DECAY_DATE":null,"OBJECT_NAME":"STARLINK-1964","PERIAPSIS":"546.053","MEAN_MOTION_DDOT":"0.0000000000000","ELEMENT_SET_NO":"999","GP_ID":"189882607","RA_OF_ASC_NODE":"238.5170","SITE":"AFETR","TLE_LINE2":"2 47565  53.0556 238.5170 0001668  61.1458 298.9699 15.06401658 43662","MEAN_MOTION_DOT":"0.00000094","BSTAR":"0.00002519100000","REF_FRAME":"TEME","MEAN_ANOMALY":"298.9699","FILE":"3216827","CLASSIFICATION_TYPE":"U","SEMIMAJOR_AXIS":"6925.343","INCLINATION":"53.0556","APOAPSIS":"548.364","NORAD_CAT_ID":"47565","PERIOD":"95.592","REV_AT_EPOCH":"4366","COUNTRY_CODE":"US","OBJECT_TYPE":"PAYLOAD","ARG_OF_PERICENTER":"61.1458","TIME_SYSTEM":"UTC","CENTER_NAME":"EARTH","EPOCH":"2021-11-16T11:31:42.810240","MEAN_ELEMENT_THEORY":"SGP4"}];
